[{"OBJECT_NAME":"STARLINK-35181","OBJECT_ID":"2025-211Q","EPOCH":"2026-03-09T16:28:13.238976","MEAN_MOTION":15.0565216,"ECCENTRICITY":9.335e-5,"INCLINATION":97.6025,"RA_OF_ASC_NODE":114.0977,"ARG_OF_PERICENTER":139.3212,"MEAN_ANOMALY":220.8085,"EPHEMERIS_TYPE":0,"CLASSIFICATION_TYPE":"U","NORAD_CAT_ID":65666,"ELEMENT_SET_NO":999,"REV_AT_EPOCH":2704,"BSTAR":0.00022959952,"MEAN_MOTION_DOT":3.254e-5,"MEAN_MOTION_DDOT":0},{"OBJECT_NAME":"MAGION 3","OBJECT_ID":"1991-086E","EPOCH":"2026-03-09T13:21:19.926432","MEAN_MOTION":12.20904134,"ECCENTRICITY":0.14519361,"INCLINATION":82.5296,"RA_OF_ASC_NODE":245.0216,"ARG_OF_PERICENTER":318.5653,"MEAN_ANOMALY":31.3694,"EPHEMERIS_TYPE":0,"CLASSIFICATION_TYPE":"U","NORAD_CAT_ID":21835,"ELEMENT_SET_NO":999,"REV_AT_EPOCH":50141,"BSTAR":0.00027550962,"MEAN_MOTION_DOT":1.51e-5,"MEAN_MOTION_DDOT":0}]
